[{"OBJECT_NAME":"GAOFEN-9 05","OBJECT_ID":"2020-058A","EPOCH":"2026-03-10T00:01:50.876256","MEAN_MOTION":15.30293976,"ECCENTRICITY":0.0010522,"INCLINATION":97.2228,"RA_OF_ASC_NODE":111.963,"ARG_OF_PERICENTER":91.0204,"MEAN_ANOMALY":269.2242,"EPHEMERIS_TYPE":0,"CLASSIFICATION_TYPE":"U","NORAD_CAT_ID":46232,"ELEMENT_SET_NO":999,"REV_AT_EPOCH":30843,"BSTAR":0.00025120304,"MEAN_MOTION_DOT":7.299e-5,"MEAN_MOTION_DDOT":0},{"OBJECT_NAME":"STARLINK-35577","OBJECT_ID":"2025-265Y","EPOCH":"2026-03-09T22:48:51.433056","MEAN_MOTION":15.27579076,"ECCENTRICITY":5.161e-5,"INCLINATION":42.9964,"RA_OF_ASC_NODE":276.4329,"ARG_OF_PERICENTER":50.9158,"MEAN_ANOMALY":309.1739,"EPHEMERIS_TYPE":0,"CLASSIFICATION_TYPE":"U","NORAD_CAT_ID":66538,"ELEMENT_SET_NO":999,"REV_AT_EPOCH":1715,"BSTAR":0.00089421652,"MEAN_MOTION_DOT":0.00024426,"MEAN_MOTION_DDOT":0}]
